THEA                    
1 43796U 18099AQ  26068.93961410  .00022649  00000+0  74635-3 0  9991
2 43796  97.4542 137.8815 0006584 275.4664  84.5826 15.31454284397483
NUSAT-48 (HENRIETTA LE*)
1 60498U 24149AG  26068.80506099  .00012988  00000+0  45212-3 0  9990
2 60498  97.3923 150.8264 0002753 263.3026  96.7901 15.29812597 86945
